OPTICUBE 04             
1 41851U 16067D   26068.51005515  .00003771  00000+0  24102-3 0  9992
2 41851  98.0811 275.5525 0017089  94.6311 265.6869 15.09188144510131
STARLINK-3701           
1 52095U 22029H   26068.33473350  .00014895  00000+0  95089-3 0  9996
2 52095  53.2166  90.7152 0001333  75.8541 284.2599 15.08881034220607
